OBJECT_NAME,OBJECT_ID,EPOCH,MEAN_MOTION,ECCENTRICITY,INCLINATION,RA_OF_ASC_NODE,ARG_OF_PERICENTER,MEAN_ANOMALY,EPHEMERIS_TYPE,CLASSIFICATION_TYPE,NORAD_CAT_ID,ELEMENT_SET_NO,REV_AT_EPOCH,BSTAR,MEAN_MOTION_DOT,MEAN_MOTION_DDOT
IRIDIUM 135,2017-083A,2026-06-10T04:11:35.145312,14.34217645,.00020394,86.3957,324.9480,91.6062,268.5368,0,U,43070,999,44314,-.2254785E-5,.13E-6,0
IRIDIUM 138,2017-083B,2026-06-10T04:48:07.245504,14.34217882,.00023901,86.3977,324.6318,88.0703,272.0767,0,U,43071,999,44313,.34858434E-4,.117E-5,0
IRIDIUM 116,2017-083C,2026-06-09T23:01:03.155520,14.34217476,.00018817,86.3959,325.0242,94.9084,265.2327,0,U,43072,999,44313,.9813183E-5,.47E-6,0
IRIDIUM 130,2017-083D,2026-06-09T22:15:23.056416,14.34217599,.00018432,86.3963,325.3121,88.4845,271.6562,0,U,43073,999,44307,-.46066615E-4,-.109E-5,0
IRIDIUM 151,2017-083E,2026-06-10T04:20:43.177920,14.34217586,.00021136,86.3962,324.9890,91.8008,268.3430,0,U,43074,999,44313,.9081664E-5,.45E-6,0
IRIDIUM 134,2017-083F,2026-06-10T03:35:03.162624,14.34217539,.00019798,86.3958,325.0101,89.5257,270.6166,0,U,43075,999,44309,-.9548145E-5,-.7E-7,0
IRIDIUM 137,2017-083G,2026-06-10T03:53:19.169088,14.34217442,.00020549,86.3963,325.0974,103.1293,257.0132,0,U,43076,999,44316,.6329167E-5,.38E-6,0
IRIDIUM 141,2017-083H,2026-06-10T03:44:11.201280,14.34217646,.0002207,86.3960,324.9313,90.8746,269.2702,0,U,43077,999,44316,.8429211E-5,.43E-6,0
IRIDIUM 153,2017-083J,2026-06-10T02:35:19.436640,14.34217568,.00022153,86.3955,293.4314,90.8601,269.2849,0,U,43078,999,44426,-.2032869E-5,.14E-6,0
IRIDIUM 131,2017-083K,2026-06-10T05:06:23.190624,14.34217234,.00020907,86.3961,325.0929,91.9570,268.1865,0,U,43079,999,44310,-.13258104E-4,-.17E-6,0
IRIDIUM 144,2018-030A,2026-06-10T02:44:27.402720,14.34217280,.00019539,86.3950,293.3579,95.3331,264.8087,0,U,43249,999,42912,-.11201272E-4,-.12E-6,0
IRIDIUM 149,2018-030B,2026-06-10T02:53:35.418048,14.34217633,.00021298,86.3950,293.3224,93.5013,266.6427,0,U,43250,999,42914,-.366299E-6,.19E-6,0
IRIDIUM 157,2018-030C,2026-06-10T01:40:31.438848,14.34217640,.00021869,86.3953,293.3964,94.1258,266.0188,0,U,43251,999,42911,.1642422E-5,.24E-6,0
IRIDIUM 140,2018-030D,2026-06-10T02:07:55.395840,14.34217548,.00020142,86.3953,293.4013,92.8739,267.2688,0,U,43252,999,42917,-.285201E-5,.12E-6,0
IRIDIUM 145,2018-030E,2026-06-09T17:27:19.260000,14.34218236,.0001903,86.3953,293.5245,97.5750,262.5662,0,U,43253,999,42905,.35989E-4,.121E-5,0
IRIDIUM 146,2018-030F,2026-06-10T03:02:43.395360,14.34217513,.00019736,86.3953,293.3698,96.0619,264.0802,0,U,43254,999,42912,-.2456242E-5,.13E-6,0
IRIDIUM 148,2018-030G,2026-06-10T02:17:03.417216,14.34217215,.00020854,86.3953,293.4261,97.2542,262.8891,0,U,43255,999,42915,-.13889758E-4,-.19E-6,0
IRIDIUM 142,2018-030H,2026-06-10T01:31:23.293920,14.34218196,.00020365,86.3951,293.3284,96.5609,263.5818,0,U,43256,999,42911,.17410707E-4,.69E-6,0
IRIDIUM 150,2018-030J,2026-06-10T02:26:11.399712,14.34217795,.00021138,86.3955,293.4287,92.6326,267.5112,0,U,43257,999,42914,.5137286E-5,.34E-6,0
IRIDIUM 143,2018-030K,2026-06-10T01:58:47.424576,14.34216865,.00019521,86.3956,293.5292,94.6802,265.4617,0,U,43258,999,42907,-.60087679E-4,-.148E-5,0
IRIDIUM 161,2018-047C,2026-06-10T02:20:02.558976,14.43278971,.00025524,86.4482,91.4353,87.2898,272.8595,0,U,43478,999,42411,.759377E-4,.276E-5,0
IRIDIUM 152,2018-047D,2026-06-10T04:40:26.276448,14.34217613,.000226,86.3959,91.2558,83.8600,276.2854,0,U,43479,999,42148,-.1523384E-5,.16E-6,0
IRIDIUM 147,2018-047E,2026-06-10T01:28:38.250912,14.34217606,.00021385,86.3959,91.3164,85.0172,275.1268,0,U,43480,999,42146,.8333526E-5,.43E-6,0
IRIDIUM 110,2018-047F,2026-06-10T01:37:46.341408,14.34217443,.00024696,86.3959,91.4054,85.2415,274.9063,0,U,43481,999,42145,-.6446036E-5,.2E-7,0
IRIDIUM 162,2018-047G,2026-06-10T02:10:58.575072,14.43277638,.00023385,86.4480,91.3291,83.1332,277.0135,0,U,43482,999,42410,.78015683E-4,.283E-5,0
IRIDIUM 160,2018-061A,2026-06-10T03:40:42.486528,14.34217516,.00021601,86.3964,59.7381,86.3436,273.8007,0,U,43569,999,41236,-.557327E-5,.4E-7,0
IRIDIUM 166,2018-061B,2026-06-10T04:17:14.487360,14.34217639,.00021417,86.3968,59.6784,85.1990,274.9451,0,U,43570,999,41239,.5964897E-4,.187E-5,0
IRIDIUM 158,2018-061C,2026-06-10T03:31:34.452192,14.34217747,.00022567,86.3965,59.7015,82.5233,277.6219,0,U,43571,999,41235,.23905941E-4,.87E-6,0
IRIDIUM 165,2018-061D,2026-06-10T04:08:06.193824,14.34216524,.00020874,86.3969,59.7370,85.8792,274.2642,0,U,43572,999,41238,.34737805E-4,.117E-5,0
IRIDIUM 155,2018-061E,2026-06-10T03:13:18.467328,14.34217679,.00021798,86.3963,59.6224,82.1285,278.0158,0,U,43573,999,41234,-.1840596E-5,.15E-6,0
