IRIDIUM 135             
1 43070U 17083A   26161.17471233  .00000013  00000+0 -22548-5 0  9997
2 43070  86.3957 324.9480 0002039  91.6062 268.5368 14.34217645443143
IRIDIUM 138             
1 43071U 17083B   26161.20008386  .00000117  00000+0  34858-4 0  9997
2 43071  86.3977 324.6318 0002390  88.0703 272.0767 14.34217882443130
IRIDIUM 116             
1 43072U 17083C   26160.95906430  .00000047  00000+0  98132-5 0  9994
2 43072  86.3959 325.0242 0001881  94.9084 265.2327 14.34217476443139
IRIDIUM 130             
1 43073U 17083D   26160.92735019 -.00000109  00000+0 -46067-4 0  9995
2 43073  86.3963 325.3121 0001843  88.4845 271.6562 14.34217599443076
IRIDIUM 151             
1 43074U 17083E   26161.18105530  .00000045  00000+0  90817-5 0  9994
2 43074  86.3962 324.9890 0002113  91.8008 268.3430 14.34217586443134
IRIDIUM 134             
1 43075U 17083F   26161.14934216 -.00000007  00000+0 -95481-5 0  9994
2 43075  86.3958 325.0101 0001979  89.5257 270.6166 14.34217539443091
IRIDIUM 137             
1 43076U 17083G   26161.16202742  .00000038  00000+0  63292-5 0  9996
2 43076  86.3963 325.0974 0002054 103.1293 257.0132 14.34217442443167
IRIDIUM 141             
1 43077U 17083H   26161.15568520  .00000043  00000+0  84292-5 0  9994
2 43077  86.3960 324.9313 0002207  90.8746 269.2702 14.34217646443169
IRIDIUM 153             
1 43078U 17083J   26161.10786385  .00000014  00000+0 -20329-5 0  9991
2 43078  86.3955 293.4314 0002215  90.8601 269.2849 14.34217568444261
IRIDIUM 131             
1 43079U 17083K   26161.21276841 -.00000017  00000+0 -13258-4 0  9991
2 43079  86.3961 325.0929 0002090  91.9570 268.1865 14.34217234443109
IRIDIUM 144             
1 43249U 18030A   26161.11420605 -.00000012  00000+0 -11201-4 0  9992
2 43249  86.3950 293.3579 0001953  95.3331 264.8087 14.34217280429120
IRIDIUM 149             
1 43250U 18030B   26161.12054882  .00000019  00000+0 -36630-6 0  9996
2 43250  86.3950 293.3224 0002129  93.5013 266.6427 14.34217633429144
IRIDIUM 157             
1 43251U 18030C   26161.06980832  .00000024  00000+0  16424-5 0  9996
2 43251  86.3953 293.3964 0002186  94.1258 266.0188 14.34217640429113
IRIDIUM 140             
1 43252U 18030D   26161.08883560  .00000012  00000+0 -28520-5 0  9997
2 43252  86.3953 293.4013 0002014  92.8739 267.2688 14.34217548429170
IRIDIUM 145             
1 43253U 18030E   26160.72730625  .00000121  00000+0  35989-4 0  9997
2 43253  86.3953 293.5245 0001903  97.5750 262.5662 14.34218236429052
IRIDIUM 146             
1 43254U 18030F   26161.12689115  .00000013  00000+0 -24562-5 0  9997
2 43254  86.3953 293.3698 0001973  96.0619 264.0802 14.34217513429126
IRIDIUM 148             
1 43255U 18030G   26161.09517844 -.00000019  00000+0 -13890-4 0  9991
2 43255  86.3953 293.4261 0002085  97.2542 262.8891 14.34217215429153
IRIDIUM 142             
1 43256U 18030H   26161.06346405  .00000069  00000+0  17411-4 0  9998
2 43256  86.3951 293.3284 0002036  96.5609 263.5818 14.34218196429110
IRIDIUM 150             
1 43257U 18030J   26161.10152083  .00000034  00000+0  51373-5 0  9999
2 43257  86.3955 293.4287 0002113  92.6326 267.5112 14.34217795429146
IRIDIUM 143             
1 43258U 18030K   26161.08249334 -.00000148  00000+0 -60088-4 0  9993
2 43258  86.3956 293.5292 0001952  94.6802 265.4617 14.34216865429072
IRIDIUM 161             
1 43478U 18047C   26161.09725184  .00000276  00000+0  75938-4 0  9998
2 43478  86.4482  91.4353 0002552  87.2898 272.8595 14.43278971424117
IRIDIUM 152             
1 43479U 18047D   26161.19474857  .00000016  00000+0 -15234-5 0  9995
2 43479  86.3959  91.2558 0002260  83.8600 276.2854 14.34217613421489
IRIDIUM 147             
1 43480U 18047E   26161.06155383  .00000043  00000+0  83335-5 0  9999
2 43480  86.3959  91.3164 0002138  85.0172 275.1268 14.34217606421464
IRIDIUM 110             
1 43481U 18047F   26161.06789747  .00000002  00000+0 -64460-5 0  9991
2 43481  86.3959  91.4054 0002469  85.2415 274.9063 14.34217443421451
IRIDIUM 162             
1 43482U 18047G   26161.09095573  .00000283  00000+0  78016-4 0  9993
2 43482  86.4480  91.3291 0002338  83.1332 277.0135 14.43277638424105
IRIDIUM 160             
1 43569U 18061A   26161.15326952  .00000004  00000+0 -55733-5 0  9994
2 43569  86.3964  59.7381 0002160  86.3436 273.8007 14.34217516412364
IRIDIUM 166             
1 43570U 18061B   26161.17863990  .00000187  00000+0  59649-4 0  9996
2 43570  86.3968  59.6784 0002141  85.1990 274.9451 14.34217639412391
IRIDIUM 158             
1 43571U 18061C   26161.14692653  .00000087  00000+0  23906-4 0  9996
2 43571  86.3965  59.7015 0002256  82.5233 277.6219 14.34217747412353
IRIDIUM 165             
1 43572U 18061D   26161.17229391  .00000117  00000+0  34738-4 0  9994
2 43572  86.3969  59.7370 0002087  85.8792 274.2642 14.34216524412388
IRIDIUM 155             
1 43573U 18061E   26161.13424152  .00000015  00000+0 -18406-5 0  9996
2 43573  86.3963  59.6224 0002179  82.1285 278.0158 14.34217679412341
